[{"OBJECT_NAME":"TDRS 11","OBJECT_ID":"2013-004A","EPOCH":"2026-03-06T04:34:21.652896","MEAN_MOTION":1.00277199,"ECCENTRICITY":0.00040008,"INCLINATION":3.37,"RA_OF_ASC_NODE":29.3865,"ARG_OF_PERICENTER":351.2846,"MEAN_ANOMALY":37.5159,"EPHEMERIS_TYPE":0,"CLASSIFICATION_TYPE":"U","NORAD_CAT_ID":39070,"ELEMENT_SET_NO":999,"REV_AT_EPOCH":4566,"BSTAR":0,"MEAN_MOTION_DOT":7.6e-7,"MEAN_MOTION_DDOT":0},{"OBJECT_NAME":"TDRS 12","OBJECT_ID":"2014-004A","EPOCH":"2026-03-06T04:57:11.634624","MEAN_MOTION":1.00269453,"ECCENTRICITY":0.00038791,"INCLINATION":3.8776,"RA_OF_ASC_NODE":17.2735,"ARG_OF_PERICENTER":268.0275,"MEAN_ANOMALY":272.0156,"EPHEMERIS_TYPE":0,"CLASSIFICATION_TYPE":"U","NORAD_CAT_ID":39504,"ELEMENT_SET_NO":999,"REV_AT_EPOCH":4324,"BSTAR":0,"MEAN_MOTION_DOT":-2.74e-6,"MEAN_MOTION_DDOT":0},{"OBJECT_NAME":"GPM-CORE","OBJECT_ID":"2014-009C","EPOCH":"2026-03-06T05:08:15.872640","MEAN_MOTION":15.44646426,"ECCENTRICITY":0.00124231,"INCLINATION":64.9728,"RA_OF_ASC_NODE":293.1301,"ARG_OF_PERICENTER":265.0003,"MEAN_ANOMALY":94.9719,"EPHEMERIS_TYPE":0,"CLASSIFICATION_TYPE":"U","NORAD_CAT_ID":39574,"ELEMENT_SET_NO":999,"REV_AT_EPOCH":68190,"BSTAR":0.00020061636,"MEAN_MOTION_DOT":9.178e-5,"MEAN_MOTION_DDOT":0},{"OBJECT_NAME":"MMS 1","OBJECT_ID":"2015-011A","EPOCH":"2026-03-06T08:00:01.000224","MEAN_MOTION":0.28337049,"ECCENTRICITY":0.84164377,"INCLINATION":70.7905,"RA_OF_ASC_NODE":350.201,"ARG_OF_PERICENTER":165.2537,"MEAN_ANOMALY":247.4435,"EPHEMERIS_TYPE":0,"CLASSIFICATION_TYPE":"U","NORAD_CAT_ID":40482,"ELEMENT_SET_NO":999,"REV_AT_EPOCH":133,"BSTAR":0,"MEAN_MOTION_DOT":-1.909e-5,"MEAN_MOTION_DDOT":0},{"OBJECT_NAME":"MMS 2","OBJECT_ID":"2015-011B","EPOCH":"2026-03-06T08:00:01.000224","MEAN_MOTION":0.28337051,"ECCENTRICITY":0.84171679,"INCLINATION":70.7908,"RA_OF_ASC_NODE":350.2031,"ARG_OF_PERICENTER":165.2598,"MEAN_ANOMALY":247.4271,"EPHEMERIS_TYPE":0,"CLASSIFICATION_TYPE":"U","NORAD_CAT_ID":40483,"ELEMENT_SET_NO":999,"REV_AT_EPOCH":133,"BSTAR":0,"MEAN_MOTION_DOT":-1.909e-5,"MEAN_MOTION_DDOT":0},{"OBJECT_NAME":"MMS 3","OBJECT_ID":"2015-011C","EPOCH":"2026-03-06T08:00:01.000224","MEAN_MOTION":0.28337022,"ECCENTRICITY":0.8416452,"INCLINATION":70.7931,"RA_OF_ASC_NODE":350.2078,"ARG_OF_PERICENTER":165.254,"MEAN_ANOMALY":247.4355,"EPHEMERIS_TYPE":0,"CLASSIFICATION_TYPE":"U","NORAD_CAT_ID":40484,"ELEMENT_SET_NO":999,"REV_AT_EPOCH":133,"BSTAR":0,"MEAN_MOTION_DOT":-1.909e-5,"MEAN_MOTION_DDOT":0},{"OBJECT_NAME":"MMS 4","OBJECT_ID":"2015-011D","EPOCH":"2026-03-06T08:00:01.000224","MEAN_MOTION":0.2833702,"ECCENTRICITY":0.84159536,"INCLINATION":70.7912,"RA_OF_ASC_NODE":350.2029,"ARG_OF_PERICENTER":165.2613,"MEAN_ANOMALY":247.4212,"EPHEMERIS_TYPE":0,"CLASSIFICATION_TYPE":"U","NORAD_CAT_ID":40485,"ELEMENT_SET_NO":999,"REV_AT_EPOCH":133,"BSTAR":0,"MEAN_MOTION_DOT":-1.908e-5,"MEAN_MOTION_DDOT":0},{"OBJECT_NAME":"TDRS 13","OBJECT_ID":"2017-047A","EPOCH":"2026-03-06T04:50:14.676000","MEAN_MOTION":1.00272313,"ECCENTRICITY":0.00104387,"INCLINATION":3.4298,"RA_OF_ASC_NODE":0.109,"ARG_OF_PERICENTER":98.7322,"MEAN_ANOMALY":126.1699,"EPHEMERIS_TYPE":0,"CLASSIFICATION_TYPE":"U","NORAD_CAT_ID":42915,"ELEMENT_SET_NO":999,"REV_AT_EPOCH":3131,"BSTAR":0,"MEAN_MOTION_DOT":-1.04e-6,"MEAN_MOTION_DDOT":0},{"OBJECT_NAME":"NOAA 20 (JPSS-1)","OBJECT_ID":"2017-073A","EPOCH":"2026-03-06T07:17:57.244992","MEAN_MOTION":14.1953505,"ECCENTRICITY":0.00010619,"INCLINATION":98.7689,"RA_OF_ASC_NODE":5.725,"ARG_OF_PERICENTER":141.7646,"MEAN_ANOMALY":218.3606,"EPHEMERIS_TYPE":0,"CLASSIFICATION_TYPE":"U","NORAD_CAT_ID":43013,"ELEMENT_SET_NO":999,"REV_AT_EPOCH":42987,"BSTAR":7.955203e-5,"MEAN_MOTION_DOT":1.24e-6,"MEAN_MOTION_DDOT":0}]
